STARLINK-30711          
1 57940U 23148F   26068.19969719 -.00000374  00000+0 -50051-6 0  9998
2 57940  53.1624  26.7448 0001269 108.4163 251.6976 15.30189821138343
NUSAT-49 (KLARA DAN VO*)
1 60500U 24149AJ  26068.79810190  .00012912  00000+0  43568-3 0  9991
2 60500  97.3807 150.7380 0001132 286.7761  73.3356 15.30828857 86935
